{
  "cosmos": {
    "norad_id": 22675,
    "classification": "U",
    "launch_year": 93,
    "launch_number": 36,
    "launch_piece": "A",
    "epoch_datetime": "2009-02-10T00:00:00",
    "mean_motion_derivative": 0.00000001,
    "mean_motion_sec_derivative": 0.0,
    "bstar_drag_term": 0.000001,
    "element_set_number": 999,
    "inclination_degrees": 74.0342,
    "raan_degrees": 288.1234,
    "eccentricity": 0.0011,
    "argument_of_perigee_degrees": 127.4567,
    "mean_anomaly_degrees": 232.8901,
    "mean_motion_orbits_per_day": 14.21219174,
    "revolution_number_at_epoch": 82514,
    "tle_line1": "1 22675U 93036A   09041.00000000  .00000001  00000-0  10000-6 0  9999",
    "tle_line2": "2 22675  74.0342 288.1234 0011000 127.4567 232.8901 14.21219174825149",
    "epoch_julian_date": 2454872.0,
    "line1_checksum": 9,
    "line2_checksum": 9,
    "is_valid": true
  },
  "iridium": {
    "norad_id": 24946,
    "classification": "U",
    "launch_year": 97,
    "launch_number": 51,
    "launch_piece": "C",
    "epoch_datetime": "2009-02-10T00:00:00",
    "mean_motion_derivative": 0.00000016,
    "mean_motion_sec_derivative": 0.0,
    "bstar_drag_term": 0.000017,
    "element_set_number": 999,
    "inclination_degrees": 86.3988,
    "raan_degrees": 261.9876,
    "eccentricity": 0.0002,
    "argument_of_perigee_degrees": 95.8765,
    "mean_anomaly_degrees": 264.1234,
    "mean_motion_orbits_per_day": 14.34219217,
    "revolution_number_at_epoch": 62946,
    "tle_line1": "1 24946U 97051C   09041.00000000  .00000016  00000-0  17000-5 0  9999",
    "tle_line2": "2 24946  86.3988 261.9876 0002000  95.8765 264.1234 14.34219217629469",
    "epoch_julian_date": 2454872.0,
    "line1_checksum": 9,
    "line2_checksum": 9,
    "is_valid": true
  }
}